[{"OBJECT_NAME":"ION SCV-004","OBJECT_ID":"2022-002K","EPOCH":"2026-03-09T16:32:03.244416","MEAN_MOTION":15.29369331,"ECCENTRICITY":0.00072157,"INCLINATION":97.2961,"RA_OF_ASC_NODE":128.2294,"ARG_OF_PERICENTER":1.6783,"MEAN_ANOMALY":358.448,"EPHEMERIS_TYPE":0,"CLASSIFICATION_TYPE":"U","NORAD_CAT_ID":50993,"ELEMENT_SET_NO":999,"REV_AT_EPOCH":23008,"BSTAR":0.00023198467,"MEAN_MOTION_DOT":6.538e-5,"MEAN_MOTION_DDOT":0},{"OBJECT_NAME":"STARLINK-31034","OBJECT_ID":"2024-011W","EPOCH":"2026-03-09T18:33:55.872576","MEAN_MOTION":15.30193618,"ECCENTRICITY":0.0001206,"INCLINATION":53.1594,"RA_OF_ASC_NODE":270.9177,"ARG_OF_PERICENTER":74.4404,"MEAN_ANOMALY":285.6729,"EPHEMERIS_TYPE":0,"CLASSIFICATION_TYPE":"U","NORAD_CAT_ID":58785,"ELEMENT_SET_NO":999,"REV_AT_EPOCH":12174,"BSTAR":4.3192856e-5,"MEAN_MOTION_DOT":9.2e-6,"MEAN_MOTION_DDOT":0}]
